ORBCOMM-X               
1 21576U 91050C   24267.77403619  .00000969  00000+0  30390-3 0  9995
2 21576  98.3803 333.3775 0002441 270.2681  89.8229 14.42753279743693
ORBCOMM FM01            
1 23545U 95017A   24268.04602548  .00022964  00000+0  28176-2 0  9990
2 23545  69.9686  14.7078 0005740 344.1589  15.9381 14.83047947573292
ORBCOMM FM02            
1 23546U 95017B   24267.63350116  .00017513  00000+0  21682-2 0  9995
2 23546  69.9696  35.3519 0007230 347.2752  12.8215 14.82745643572529
ORBCOMM FM08            
1 25112U 97084A   24267.92210171  .00006204  00000+0  18516-2 0  9997
2 25112  45.0133 204.2303 0008220 344.6923  15.3678 14.43624135402869
ORBCOMM FM10            
1 25113U 97084B   24267.86996875  .00005927  00000+0  17756-2 0  9999
2 25113  45.0143 206.4625 0005961 319.0692  40.9710 14.43501418578009
ORBCOMM FM11            
1 25114U 97084C   24267.90189492  .00005063  00000+0  15286-2 0  9991
2 25114  45.0129 206.5091 0006819 318.7723  41.2612 14.43322728402978
ORBCOMM FM12            
1 25115U 97084D   24268.14222215  .00001622  00000+0  51911-3 0  9993
2 25115  45.0147 205.1044 0005761 321.3830  38.6608 14.43287444403045
ORBCOMM FM09            
1 25116U 97084E   24267.53411221  .00004007  00000+0  12210-2 0  9991
2 25116  45.0141 208.7417 0006798 304.2066  55.8140 14.43235434402958
